{"type": "FeatureCollection", "features": [{"type": "Feature", "properties": {"norad_id": 28054, "name": "DMSP 5D-3 F16 (USA 172)", "group": "weather", "lat": 78.68514595886936, "lon": -125.27007861891663, "alt_km": 839.9610737829744, "timestamp": "2025-12-10T20:49:52.203452+00:00", "meta": {"OBJECT_NAME": "DMSP 5D-3 F16 (USA 172)", "OBJECT_ID": "2003-048A", "EPOCH": "2025-12-10T14:05:57.577344", "MEAN_MOTION": 14.14423113, "ECCENTRICITY": 0.00065739, "INCLINATION": 99.0048, "RA_OF_ASC_NODE": 2.0275, "ARG_OF_PERICENTER": 327.6256, "MEAN_ANOMALY": 141.7192, "EPHEMERIS_TYPE": 0, "CLASSIFICATION_TYPE": "U", "NORAD_CAT_ID": 28054, "ELEMENT_SET_NO": 999, "REV_AT_EPOCH": 14282, "BSTAR": 0.00013723796, "MEAN_MOTION_DOT": 2.17e-06, "MEAN_MOTION_DDOT": 0}, "tle": {"line1": "1 28054U 03048A   25344.58747196  .00000217  00000+0  13724-3 0  9998", "line2": "2 28054  99.0048   2.0275 0006573 327.6256 141.7192 14.14423113142825"}}, "geometry": {"type": "Point", "coordinates": [-125.27007861891663, 78.68514595886936]}}, {"type": "Feature", "properties": {"norad_id": 28912, "name": "METEOSAT-9 (MSG-2)", "group": "weather", "lat": 3.34428450504969, "lon": 77.7028934131991, "alt_km": 35800.32178401729, "timestamp": "2025-12-10T20:49:52.203499+00:00", "meta": {"OBJECT_NAME": "METEOSAT-9 (MSG-2)", "OBJECT_ID": "2005-049B", "EPOCH": "2025-12-09T20:38:15.300384", "MEAN_MOTION": 1.00274858, "ECCENTRICITY": 0.0003774, "INCLINATION": 8.9334, "RA_OF_ASC_NODE": 56.0037, "ARG_OF_PERICENTER": 190.0856, "MEAN_ANOMALY": 187.9557, "EPHEMERIS_TYPE": 0, "CLASSIFICATION_TYPE": "U", "NORAD_CAT_ID": 28912, "ELEMENT_SET_NO": 999, "REV_AT_EPOCH": 510, "BSTAR": 0, "MEAN_MOTION_DOT": 1.24e-06, "MEAN_MOTION_DDOT": 0}, "tle": {"line1": "1 28912U 05049B   25343.85989931  .00000124  00000+0  00000+0 0  9994", "line2": "2 28912   8.9334  56.0037 0003774 190.0856 187.9557  1.00274858  5105"}}, "geometry": {"type": "Point", "coordinates": [77.7028934131991, 3.34428450504969]}}, {"type": "Feature", "properties": {"norad_id": 29522, "name": "DMSP 5D-3 F17 (USA 191)", "group": "weather", "lat": 33.383793607507904, "lon": -15.521806303707674, "alt_km": 846.8951265286923, "timestamp": "2025-12-10T20:49:52.203517+00:00", "meta": {"OBJECT_NAME": "DMSP 5D-3 F17 (USA 191)", "OBJECT_ID": "2006-050A", "EPOCH": "2025-12-10T13:52:58.474848", "MEAN_MOTION": 14.14918096, "ECCENTRICITY": 0.00093144, "INCLINATION": 98.7394, "RA_OF_ASC_NODE": 350.0125, "ARG_OF_PERICENTER": 231.6233, "MEAN_ANOMALY": 128.4104, "EPHEMERIS_TYPE": 0, "CLASSIFICATION_TYPE": "U", "NORAD_CAT_ID": 29522, "ELEMENT_SET_NO": 999, "REV_AT_EPOCH": 98574, "BSTAR": 0.00016569277, "MEAN_MOTION_DOT": 2.77e-06, "MEAN_MOTION_DDOT": 0}, "tle": {"line1": "1 29522U 06050A   25344.57845457  .00000277  00000+0  16569-3 0  9999", "line2": "2 29522  98.7394 350.0125 0009314 231.6233 128.4104 14.14918096985741"}}, "geometry": {"type": "Point", "coordinates": [-15.521806303707674, 33.383793607507904]}}, {"type": "Feature", "properties": {"norad_id": 32958, "name": "FENGYUN 3A", "group": "weather", "lat": 74.45208554704465, "lon": -108.82190642383026, "alt_km": 822.805064362281, "timestamp": "2025-12-10T20:49:52.203531+00:00", "meta": {"OBJECT_NAME": "FENGYUN 3A", "OBJECT_ID": "2008-026A", "EPOCH": "2025-12-10T13:42:10.579392", "MEAN_MOTION": 14.19513473, "ECCENTRICITY": 0.00079911, "INCLINATION": 98.6695, "RA_OF_ASC_NODE": 284.1435, "ARG_OF_PERICENTER": 317.2846, "MEAN_ANOMALY": 42.7709, "EPHEMERIS_TYPE": 0, "CLASSIFICATION_TYPE": "U", "NORAD_CAT_ID": 32958, "ELEMENT_SET_NO": 999, "REV_AT_EPOCH": 90864, "BSTAR": 0.0001207129, "MEAN_MOTION_DOT": 2.11e-06, "MEAN_MOTION_DDOT": 0}, "tle": {"line1": "1 32958U 08026A   25344.57095578  .00000211  00000+0  12071-3 0  9994", "line2": "2 32958  98.6695 284.1435 0007991 317.2846  42.7709 14.19513473908640"}}, "geometry": {"type": "Point", "coordinates": [-108.82190642383026, 74.45208554704465]}}, {"type": "Feature", "properties": {"norad_id": 35491, "name": "GOES 14", "group": "weather", "lat": -0.3942962388245718, "lon": -76.2661698484, "alt_km": 35825.833752873084, "timestamp": "2025-12-10T20:49:52.203546+00:00", "meta": {"OBJECT_NAME": "GOES 14", "OBJECT_ID": "2009-033A", "EPOCH": "2025-12-10T13:15:23.933376", "MEAN_MOTION": 1.00165692, "ECCENTRICITY": 0.00034764, "INCLINATION": 1.1984, "RA_OF_ASC_NODE": 85.3691, "ARG_OF_PERICENTER": 330.6865, "MEAN_ANOMALY": 113.9048, "EPHEMERIS_TYPE": 0, "CLASSIFICATION_TYPE": "U", "NORAD_CAT_ID": 35491, "ELEMENT_SET_NO": 999, "REV_AT_EPOCH": 470, "BSTAR": 0, "MEAN_MOTION_DOT": -4.7e-07, "MEAN_MOTION_DDOT": 0}, "tle": {"line1": "1 35491U 09033A   25344.55236034 -.00000047  00000+0  00000+0 0  9993", "line2": "2 35491   1.1984  85.3691 0003476 330.6865 113.9048  1.00165692  4707"}}, "geometry": {"type": "Point", "coordinates": [-76.2661698484, -0.3942962388245718]}}, {"type": "Feature", "properties": {"norad_id": 35951, "name": "DMSP 5D-3 F18 (USA 210)", "group": "weather", "lat": -78.23449919315877, "lon": 92.6109804800095, "alt_km": 858.8583497819827, "timestamp": "2025-12-10T20:49:52.203558+00:00", "meta": {"OBJECT_NAME": "DMSP 5D-3 F18 (USA 210)", "OBJECT_ID": "2009-057A", "EPOCH": "2025-12-10T14:30:13.367232", "MEAN_MOTION": 14.14767313, "ECCENTRICITY": 0.00120861, "INCLINATION": 98.8833, "RA_OF_ASC_NODE": 321.0158, "ARG_OF_PERICENTER": 68.3272, "MEAN_ANOMALY": 291.9187, "EPHEMERIS_TYPE": 0, "CLASSIFICATION_TYPE": "U", "NORAD_CAT_ID": 35951, "ELEMENT_SET_NO": 999, "REV_AT_EPOCH": 83292, "BSTAR": 0.00024592514, "MEAN_MOTION_DOT": 4.3e-06, "MEAN_MOTION_DDOT": 0}, "tle": {"line1": "1 35951U 09057A   25344.60432138  .00000430  00000+0  24593-3 0  9991", "line2": "2 35951  98.8833 321.0158 0012086  68.3272 291.9187 14.14767313832927"}}, "geometry": {"type": "Point", "coordinates": [92.6109804800095, -78.23449919315877]}}, {"type": "Feature", "properties": {"norad_id": 36411, "name": "EWS-G2 (GOES 15)", "group": "weather", "lat": 0.12558422487205895, "lon": 93.70744875878508, "alt_km": 35810.89194770626, "timestamp": "2025-12-10T20:49:52.203572+00:00", "meta": {"OBJECT_NAME": "EWS-G2 (GOES 15)", "OBJECT_ID": "2010-008A", "EPOCH": "2025-12-10T15:08:36.189024", "MEAN_MOTION": 1.00269223, "ECCENTRICITY": 0.00058594, "INCLINATION": 0.8089, "RA_OF_ASC_NODE": 86.0537, "ARG_OF_PERICENTER": 174.1921, "MEAN_ANOMALY": 107.9328, "EPHEMERIS_TYPE": 0, "CLASSIFICATION_TYPE": "U", "NORAD_CAT_ID": 36411, "ELEMENT_SET_NO": 999, "REV_AT_EPOCH": 5774, "BSTAR": 0, "MEAN_MOTION_DOT": 4.2e-07, "MEAN_MOTION_DDOT": 0}, "tle": {"line1": "1 36411U 10008A   25344.63097441  .00000042  00000+0  00000+0 0  9990", "line2": "2 36411   0.8089  86.0537 0005859 174.1921 107.9328  1.00269223 57741"}}, "geometry": {"type": "Point", "coordinates": [93.70744875878508, 0.12558422487205895]}}, {"type": "Feature", "properties": {"norad_id": 36744, "name": "COMS 1", "group": "weather", "lat": 4.302593822237001, "lon": 160.44689092297398, "alt_km": 35788.54083878927, "timestamp": "2025-12-10T20:49:52.203585+00:00", "meta": {"OBJECT_NAME": "COMS 1", "OBJECT_ID": "2010-032A", "EPOCH": "2025-12-10T14:40:38.875584", "MEAN_MOTION": 1.00270612, "ECCENTRICITY": 0.00011001, "INCLINATION": 4.3365, "RA_OF_ASC_NODE": 78.02, "ARG_OF_PERICENTER": 207.3502, "MEAN_ANOMALY": 142.5495, "EPHEMERIS_TYPE": 0, "CLASSIFICATION_TYPE": "U", "NORAD_CAT_ID": 36744, "ELEMENT_SET_NO": 999, "REV_AT_EPOCH": 4919, "BSTAR": 0, "MEAN_MOTION_DOT": -3.4e-06, "MEAN_MOTION_DDOT": 0}, "tle": {"line1": "1 36744U 10032A   25344.61156106 -.00000340  00000+0  00000+0 0  9990", "line2": "2 36744   4.3365  78.0200 0001100 207.3502 142.5495  1.00270612 49197"}}, "geometry": {"type": "Point", "coordinates": [160.44689092297398, 4.302593822237001]}}, {"type": "Feature", "properties": {"norad_id": 37214, "name": "FENGYUN 3B", "group": "weather", "lat": -45.848241538190095, "lon": -164.5535751009512, "alt_km": 861.3484435545697, "timestamp": "2025-12-10T20:49:52.203597+00:00", "meta": {"OBJECT_NAME": "FENGYUN 3B", "OBJECT_ID": "2010-059A", "EPOCH": "2025-12-10T15:25:35.424768", "MEAN_MOTION": 14.14789207, "ECCENTRICITY": 0.00221844, "INCLINATION": 98.9904, "RA_OF_ASC_NODE": 24.6049, "ARG_OF_PERICENTER": 3.71, "MEAN_ANOMALY": 156.636, "EPHEMERIS_TYPE": 0, "CLASSIFICATION_TYPE": "U", "NORAD_CAT_ID": 37214, "ELEMENT_SET_NO": 999, "REV_AT_EPOCH": 78076, "BSTAR": 0.00022365827, "MEAN_MOTION_DOT": 3.87e-06, "MEAN_MOTION_DDOT": 0}, "tle": {"line1": "1 37214U 10059A   25344.64277112  .00000387  00000+0  22366-3 0  9999", "line2": "2 37214  98.9904  24.6049 0022184   3.7100 156.6360 14.14789207780769"}}, "geometry": {"type": "Point", "coordinates": [-164.5535751009512, -45.848241538190095]}}, {"type": "Feature", "properties": {"norad_id": 37849, "name": "SUOMI NPP", "group": "weather", "lat": 35.118024603696, "lon": -84.01147981130563, "alt_km": 824.5301976347437, "timestamp": "2025-12-10T20:49:52.203609+00:00", "meta": {"OBJECT_NAME": "SUOMI NPP", "OBJECT_ID": "2011-061A", "EPOCH": "2025-12-10T15:35:20.359680", "MEAN_MOTION": 14.1951326, "ECCENTRICITY": 0.0002177, "INCLINATION": 98.7771, "RA_OF_ASC_NODE": 282.0099, "ARG_OF_PERICENTER": 123.8678, "MEAN_ANOMALY": 236.2706, "EPHEMERIS_TYPE": 0, "CLASSIFICATION_TYPE": "U", "NORAD_CAT_ID": 37849, "ELEMENT_SET_NO": 999, "REV_AT_EPOCH": 73169, "BSTAR": 0.00011253994, "MEAN_MOTION_DOT": 1.93e-06, "MEAN_MOTION_DDOT": 0}, "tle": {"line1": "1 37849U 11061A   25344.64954120  .00000193  00000+0  11254-3 0  9997", "line2": "2 37849  98.7771 282.0099 0002177 123.8678 236.2706 14.19513260731698"}}, "geometry": {"type": "Point", "coordinates": [-84.01147981130563, 35.118024603696]}}]}